NORAD_CAT_ID,OBJECT_NAME,OBJECT_TYPE,EPOCH,MEAN_MOTION,ECCENTRICITY,INCLINATION,RA_OF_ASC_NODE,ARG_OF_PERICENTER,MEAN_ANOMALY,BSTAR,MEAN_MOTION_DOT,MEAN_MOTION_DDOT,TLE_LINE0,TLE_LINE1,TLE_LINE2,SEMIMAJOR_AXIS,PERIOD,APOGEE,PERIGEE,DECAYED
53927.0,STARLINK-5008,PAYLOAD,2022-10-26 14:00:01,15.73212596,0.0001125999999999,53.215,96.4956,55.0237,47.1971,0.00017051,0.00023389,0.0,0 STARLINK-5008,1 53927U 22119AT  22299.58334491  .00023389  00000-0  17051-3 0  9994,2 53927  53.2150  96.4956 0001126  55.0237  47.1971 15.73212596  5415,6727.859,91.532,350.482,348.967,0.0
53927.0,STARLINK-5008,PAYLOAD,2022-10-26 22:00:00,15.73237357,0.000134,53.2145,94.8474,48.095,143.0788,-0.00012953,-0.00018787,0.0,0 STARLINK-5008,1 53927U 22119AT  22299.91667824 -.00018787  00000-0 -12953-3 0  9994,2 53927  53.2145  94.8474 0001340  48.0950 143.0788 15.73237357  1306,6727.7890000000025,91.531,350.555,348.75199999999984,0.0
53927.0,STARLINK-5008,PAYLOAD,2022-10-27 04:00:00,15.73217714,0.0001314,53.2146,93.6085,57.5842,110.3174,6.8966e-05,9.077e-05,0.0,0 STARLINK-5008,1 53927U 22119AT  22300.16667824  .00009077  00000-0  68966-4 0  9990,2 53927  53.2146  93.6085 0001314  57.5842 110.3174 15.73217714  5505,6727.845,91.532,350.594,348.826,0.0
53927.0,STARLINK-5008,PAYLOAD,2022-10-27 14:00:01,15.73234305,0.000144,53.2151,91.5469,58.1442,311.028,-5.1012e-05,-7.784e-05,0.0,0 STARLINK-5008,1 53927U 22119AT  22300.58335648 -.00007784  00000-0 -51012-4 0  9991,2 53927  53.2151  91.5469 0001440  58.1442 311.0280 15.73234305  1304,6727.797,91.531,350.631,348.694,0.0
53927.0,STARLINK-5008,PAYLOAD,2022-10-27 22:00:00,15.73204175,0.0001439,53.2151,89.8986,45.8599,52.224,0.00038395,0.00053619,0.0,0 STARLINK-5008,1 53927U 22119AT  22300.91667824  .00053619  00000-0  38395-3 0  9996,2 53927  53.2151  89.8986 0001439  45.8599  52.2240 15.73204175  1304,6727.8830000000025,91.533,350.716,348.78,0.0
53927.0,STARLINK-5008,PAYLOAD,2022-10-28 06:00:00,15.73232241,0.0001238,53.2154,88.24700000000001,45.6841,141.3663,-0.00024929,-0.00035507,0.0,0 STARLINK-5008,1 53927U 22119AT  22301.25001157 -.00035507  00000-0 -24929-3 0  9991,2 53927  53.2154  88.2470 0001238  45.6841 141.3663 15.73232241  5671,6727.803000000001,91.531,350.501,348.835,0.0
53927.0,STARLINK-5008,PAYLOAD,2022-10-28 14:00:01,15.73181988,0.0001434,53.2155,86.5985,44.7257,231.3376,0.00016089,0.00022002,0.0,0 STARLINK-5008,1 53927U 22119AT  22301.58335648  .00022002  00000-0  16089-3 0  9994,2 53927  53.2155  86.5985 0001434  44.7257 231.3376 15.73181988  1301,6727.946999999999,91.534,350.776,348.847,0.0
53927.0,STARLINK-5008,PAYLOAD,2022-10-28 22:00:01,15.73237985,0.0001559,53.2149,84.9501,36.1574,328.8168,-0.00018256,-0.00026204,0.0,0 STARLINK-5008,1 53927U 22119AT  22301.91668981 -.00026204  00000-0 -18256-3 0  9998,2 53927  53.2149  84.9501 0001559  36.1574 328.8168 15.73237985  5770,6727.7869999999975,91.531,350.701,348.603,0.0
53927.0,STARLINK-5008,PAYLOAD,2022-10-29 12:00:00,15.72911598,0.0001423,53.2168,82.0435,45.178,25.3979,0.0031694,0.00463923,0.0,0 STARLINK-5008,1 53927U 22119AT  22302.50001157  .00463923  00000-0  31694-2 0  9991,2 53927  53.2168  82.0435 0001423  45.1780  25.3979 15.72911598  1307,6728.718000000003,91.55,351.54,349.625,0.0
53927.0,STARLINK-5008,PAYLOAD,2022-10-29 22:00:01,15.73163674,0.0001721999999999,53.2153,80.0016,37.6523,234.1619,0.00026036,0.0003602,0.0,0 STARLINK-5008,1 53927U 22119AT  22302.91668981  .00036020  00000-0  26036-3 0  9999,2 53927  53.2153  80.0016 0001722  37.6523 234.1619 15.73163674  1303,6727.999,91.535,351.022,348.705,0.0
53927.0,STARLINK-5008,PAYLOAD,2022-10-30 00:00:00,15.73197674,0.0001727,53.2154,79.5888,38.4564,345.5074,-0.00024109,-0.00034316,0.0,0 STARLINK-5008,1 53927U 22119AT  22303.00001157 -.00034316  00000-0 -24109-3 0  9993,2 53927  53.2154  79.5888 0001727  38.4564 345.5074 15.73197674  5946,6727.901999999999,91.533,350.92900000000014,348.605,0.0
53927.0,STARLINK-5008,PAYLOAD,2022-10-30 14:00:01,15.73228896,0.0001808,53.2155,76.7023,40.1208,49.4006,-0.00051771,-0.00072747,0.0,0 STARLINK-5008,1 53927U 22119AT  22303.58334491 -.00072747  00000-0 -51771-3 0  9991,2 53927  53.2155  76.7023 0001808  40.1208  49.4006 15.73228896  1304,6727.813,91.531,350.894,348.461,0.0
53927.0,STARLINK-5008,PAYLOAD,2022-10-30 22:00:01,15.73165091,0.0001771,53.2149,75.0532,29.1911,149.3371,-1.6116e-05,-2.878e-05,0.0,0 STARLINK-5008,1 53927U 22119AT  22303.91668981 -.00002878  00000-0 -16116-4 0  9995,2 53927  53.2149  75.0532 0001771  29.1911 149.3371 15.73165091  1303,6727.995,91.535,351.051,348.668,0.0
53927.0,STARLINK-5008,PAYLOAD,2022-10-31 14:00:01,15.73234191,0.0001774,53.2152,71.75399999999998,31.0462,325.2205,-0.00046451,-0.00065406,0.0,0 STARLINK-5008,1 53927U 22119AT  22304.58334491 -.00065406  00000-0 -46451-3 0  9995,2 53927  53.2152  71.7540 0001774  31.0462 325.2205 15.73234191  1304,6727.7980000000025,91.531,350.856,348.469,0.0
53927.0,STARLINK-5008,PAYLOAD,2022-10-31 20:00:01,15.73182024,0.0001927,53.2152,70.5176,27.1674,305.8785,0.00022312,0.00030785,0.0,0 STARLINK-5008,1 53927U 22119AT  22304.83335648  .00030785  00000-0  22312-3 0  9998,2 53927  53.2152  70.5176 0001927  27.1674 305.8785 15.73182024  6238,6727.946,91.534,351.108,348.515,0.0
53927.0,STARLINK-5008,PAYLOAD,2022-10-31 22:00:01,15.73185205,0.0001904,53.2151,70.1046,26.6207,58.6547,0.00022976,0.00031727,0.0,0 STARLINK-5008,1 53927U 22119AT  22304.91668981  .00031727  00000-0  22976-3 0  9999,2 53927  53.2151  70.1046 0001904  26.6207  58.6547 15.73185205  1306,6727.937,91.534,351.083,348.521,0.0
53927.0,STARLINK-5008,PAYLOAD,2022-11-01 14:00:01,15.73225469,0.0002065,53.2154,66.8053,30.9347,232.1607,-6.332600000000001e-05,-9.509e-05,0.0,0 STARLINK-5008,1 53927U 22119AT  22305.58334491 -.00009509  00000-0 -63326-4 0  9999,2 53927  53.2154  66.8053 0002065  30.9347 232.1607 15.73225469  1304,6727.823,91.532,351.077,348.298,0.0
53927.0,STARLINK-5008,PAYLOAD,2022-11-01 20:00:01,15.7323134,0.0002089999999999,53.215,65.5685,24.8961,214.919,-0.00023345,-0.00033302,0.0,0 STARLINK-5008,1 53927U 22119AT  22305.83334491 -.00033302  00000-0 -23345-3 0  9991,2 53927  53.2150  65.5685 0002090  24.8961 214.9190 15.73231340  6393,6727.806,91.531,351.077,348.265,0.0
53927.0,STARLINK-5008,PAYLOAD,2022-11-01 22:00:00,15.73246646,0.000206,53.2149,65.1556,23.302,328.7492,-0.0006181,-0.0008666,0.0,0 STARLINK-5008,1 53927U 22119AT  22305.91667824 -.00086660  00000-0 -61810-3 0  9993,2 53927  53.2149  65.1556 0002060  23.3020 328.7492 15.73246646  1301,6727.762,91.53,351.01300000000015,348.241,0.0
53927.0,STARLINK-5008,PAYLOAD,2022-11-02 14:00:01,15.73165435,0.000217,53.2155,61.8554,24.5749,145.3167,0.00045584,0.00063749,0.0,0 STARLINK-5008,1 53927U 22119AT  22306.58334491  .00063749  00000-0  45584-3 0  9999,2 53927  53.2155  61.8554 0002170  24.5749 145.3167 15.73165435  1300,6727.994000000002,91.535,351.319,348.399,0.0
53927.0,STARLINK-5008,PAYLOAD,2022-11-02 22:00:00,15.73255692,0.0002258,53.2152,60.2069,24.3913,234.3788,-0.00032077,-0.00045509,0.0,0 STARLINK-5008,1 53927U 22119AT  22306.91667824 -.00045509  00000-0 -32077-3 0  9994,2 53927  53.2152  60.2069 0002258  24.3913 234.3788 15.73255692  6565,6727.736,91.53,351.121,348.082,0.0
53927.0,STARLINK-5008,PAYLOAD,2022-11-03 06:00:02,15.73124538,0.000219,53.2169,58.5377,35.1901,312.6473,0.00089264,0.0012615,0.0,0 STARLINK-5008,1 53927U 22119AT  22307.25002315  .00126150  00000-0  89264-3 0  9990,2 53927  53.2169  58.5377 0002190  35.1901 312.6473 15.73124538  6618,6728.11,91.538,351.449,348.50199999999984,0.0
53927.0,STARLINK-5008,PAYLOAD,2022-11-03 14:00:01,15.73254707,0.0002385,53.2156,56.9077,22.7138,54.0129,-0.00030003,-0.00042621,0.0,0 STARLINK-5008,1 53927U 22119AT  22307.58334491 -.00042621  00000-0 -30003-3 0  9998,2 53927  53.2156  56.9077 0002385  22.7138  54.0129 15.73254707  1301,6727.739000000001,91.53,351.209,348.0,0.0
53927.0,STARLINK-5008,PAYLOAD,2022-11-03 22:00:00,15.73263969,0.000241,53.2153,55.2576,19.5658,146.1287,-0.00037419,-0.00052959,0.0,0 STARLINK-5008,1 53927U 22119AT  22307.91667824 -.00052959  00000-0 -37419-3 0  9997,2 53927  53.2153  55.2576 0002410  19.5658 146.1287 15.73263969  1302,6727.7130000000025,91.529,351.199,347.956,0.0
53927.0,STARLINK-5008,PAYLOAD,2022-11-04 06:00:00,15.73218264,0.0002188,53.2154,53.6062,20.8733,233.8093,-0.0001167,-0.00016981,0.0,0 STARLINK-5008,1 53927U 22119AT  22308.25001157 -.00016981  00000-0 -11670-3 0  9992,2 53927  53.2154  53.6062 0002188  20.8733 233.8093 15.73218264  6779,6727.843000000003,91.532,351.18,348.236,0.0
53927.0,STARLINK-5008,PAYLOAD,2022-11-04 14:00:01,15.73298252,0.0002185,53.2161,51.9485,19.1385,324.4804,-0.0027753,-0.00374915,0.0,0 STARLINK-5008,1 53927U 22119AT  22308.58334491 -.00374915  00000-0 -27753-2 0  9990,2 53927  53.2161  51.9485 0002185  19.1385 324.4804 15.73298252  6826,6727.615,91.527,350.95,348.01,0.0
53927.0,STARLINK-5008,PAYLOAD,2022-11-04 22:00:01,15.73254153,0.0002482,53.2159,50.3086,12.0699,60.5763,-0.00077783,-0.00108657,0.0,0 STARLINK-5008,1 53927U 22119AT  22308.91668981 -.00108657  00000-0 -77783-3 0  9998,2 53927  53.2159  50.3086 0002482  12.0699  60.5763 15.73254153  6883,6727.741,91.53,351.276,347.936,0.0
53927.0,STARLINK-5008,PAYLOAD,2022-11-05 14:00:01,15.73086071,0.0002777,53.2165,47.0104,19.196,231.2546,0.00056014,0.00078353,0.0,0 STARLINK-5008,1 53927U 22119AT  22309.58335648  .00078353  00000-0  56014-3 0  9994,2 53927  53.2165  47.0104 0002777  19.1960 231.2546 15.73086071  1300,6728.22,91.54,351.95300000000015,348.217,0.0
53927.0,STARLINK-5008,PAYLOAD,2022-11-05 22:00:01,15.73240569,0.0002833,53.2166,45.3492,19.1849,320.1066,-0.00079092,-0.00110397,0.0,0 STARLINK-5008,1 53927U 22119AT  22309.91668981 -.00110397  00000-0 -79092-3 0  9998,2 53927  53.2166  45.3492 0002833  19.1849 320.1066 15.73240569  7036,6727.78,91.531,351.55,347.73900000000015,0.0
